{
    "links": {
        "self": "http://www.neowsapp.com/rest/v1/neo/3092341?api_key=iIulBulltgU6a56xZRHN4H3l9WmuAYTsLGpBGhQ2"
    },
    "id": "3092341",
    "neo_reference_id": "3092341",
    "name": "(2001 SD270)",
    "designation": "2001 SD270",
    "nasa_jpl_url": "http://ssd.jpl.nasa.gov/sbdb.cgi?sstr=3092341",
    "absolute_magnitude_h": 21.395,
    "estimated_diameter": {
        "kilometers": {
            "estimated_diameter_min": 0.1398153894,
            "estimated_diameter_max": 0.312636715
        },
        "meters": {
            "estimated_diameter_min": 139.8153894066,
            "estimated_diameter_max": 312.6367150139
        },
        "miles": {
            "estimated_diameter_min": 0.0868772283,
            "estimated_diameter_max": 0.1942633882
        },
        "feet": {
            "estimated_diameter_min": 458.7119221809,
            "estimated_diameter_max": 1025.7110400861
        }
    },
    "is_potentially_hazardous_asteroid": false,
    "close_approach_data": [
        {
            "close_approach_date": "2001-10-07",
            "close_approach_date_full": "2001-Oct-07 00:08",
            "epoch_date_close_approach": 1002413280000,
            "relative_velocity": {
                "kilometers_per_second": "15.0236558679",
                "kilometers_per_hour": "54085.1611242704",
                "miles_per_hour": "33606.4158108002"
            },
            "miss_distance": {
                "astronomical": "0.163838189",
                "lunar": "63.733055521",
                "kilometers": "24509844.09905743",
                "miles": "15229710.912075334"
            },
            "orbiting_body": "Earth"
        }
    ],
    "orbital_data": {
        "orbit_id": "12",
        "orbit_determination_date": "2017-04-06 09:16:04",
        "first_observation_date": "2001-09-26",
        "last_observation_date": "2001-10-06",
        "data_arc_in_days": 10,
        "observations_used": 27,
        "orbit_uncertainty": "9",
        "minimum_orbit_intersection": ".161758",
        "jupiter_tisserand_invariant": "3.180",
        "epoch_osculation": "2452181.5",
        "eccentricity": ".5551458886295237",
        "semi_major_axis": "2.422884644708948",
        "inclination": "24.58297394623263",
        "ascending_node_longitude": "4.304625788565626",
        "orbital_period": "1377.518795261431",
        "perihelion_distance": "1.077830195575171",
        "perihelion_argument": "42.52465914281435",
        "aphelion_distance": "3.767939093842724",
        "perihelion_time": "2452221.297094849982",
        "mean_anomaly": "349.5994492450649",
        "mean_motion": ".2613394468651717",
        "equinox": "J2000",
        "orbit_class": {
            "orbit_class_type": "AMO",
            "orbit_class_description": "Near-Earth asteroid orbits similar to that of 1221 Amor",
            "orbit_class_range": "1.017 AU < q (perihelion) < 1.3 AU"
        }
    },
    "is_sentry_object": false
}